ONEWEB-0236             
1 48797U 21045AG  26170.53361964 -.00000008  00000+0 -55303-4 0  9999
2 48797  87.8998 258.7389 0002087 101.2491 258.8874 13.15549153244563
ONEWEB-0248             
1 48798U 21045AH  26170.69840184  .00000308  00000+0  78281-3 0  9993
2 48798  87.9012 258.6899 0001825 115.3725 244.7595 13.15548389244746
ONEWEB-0225             
1 48799U 21045AJ  26170.72059139  .00000000  00000+0 -32734-4 0  9994
2 48799  87.9009 258.6934 0001525 112.4043 247.7249 13.15549143244750
ONEWEB-0215             
1 48800U 21045AK  26170.69047381  .00000185  00000+0  45848-3 0  9991
2 48800  87.9011 258.6820 0001561 119.7258 240.4028 13.15547210244622
ONEWEB-0216             
1 48801U 21045AL  26170.69999432  .00000181  00000+0  44743-3 0  9994
2 48801  87.9010 258.6949 0001960  98.8210 261.3143 13.15549407244633
ONEWEB-0239             
1 48802U 21045AM  26170.70474397  .00000155  00000+0  37644-3 0  9998
2 48802  87.9001 258.7002 0001778 125.8255 234.3040 13.15548798244674
ONEWEB-0249             
1 48967U 21060A   26170.63678559  .00000005  00000+0 -20225-4 0  9998
2 48967  87.9096 228.2917 0002054 100.9325 259.2037 13.16595634239934
ONEWEB-0250             
1 48968U 21060B   26170.64703705  .00000067  00000+0  12178-3 0  9996
2 48968  87.9095 226.0381 0002887 111.7643 248.3801 13.25833853240547
ONEWEB-0252             
1 48970U 21060D   26170.66766694  .00000014  00000+0  32898-5 0  9992
2 48970  87.9095 228.2777 0001902  92.8765 267.2583 13.16593970239980
ONEWEB-0253             
1 48971U 21060E   26170.65658433  .00000039  00000+0  67486-4 0  9990
2 48971  87.9095 228.2857 0002087 101.0819 259.0546 13.16593638239910
ONEWEB-0254             
1 48972U 21060F   26170.66608310 -.00000005  00000+0 -45400-4 0  9998
2 48972  87.9096 228.2812 0001964 106.9047 253.2299 13.16594853239914
ONEWEB-0255             
1 48973U 21060G   26170.55208788  .00000049  00000+0  94009-4 0  9997
2 48973  87.9098 228.3105 0001923 101.9518 258.1829 13.16595062239978
ONEWEB-0256             
1 48974U 21060H   26170.42621233 -.00000750  00000+0 -19965-2 0  9995
2 48974  87.9090 228.3394 0002168  92.8715 267.2664 13.16597088239923
ONEWEB-0257             
1 48975U 21060J   26170.68666106  .00000178  00000+0  43126-3 0  9991
2 48975  87.9096 228.2748 0001876  98.6271 261.5072 13.16594770239912
ONEWEB-0258             
1 48976U 21060K   26170.68824816  .00000057  00000+0  11432-3 0  9997
2 48976  87.9095 228.2865 0002070  99.1398 260.9967 13.16594177239923
ONEWEB-0259             
1 48977U 21060L   26170.68191552  .00000120  00000+0  28099-3 0  9990
2 48977  87.9094 228.2870 0002053 102.7798 257.3562 13.16594926239951
ONEWEB-0260             
1 48978U 21060M   26170.67320270  .00000047  00000+0  89136-4 0  9999
2 48978  87.9088 228.2902 0001916  86.6750 273.4600 13.16594161239937
ONEWEB-0261             
1 48979U 21060N   26170.71910447 -.00000011  00000+0 -62348-4 0  9995
2 48979  87.9093 228.2812 0001731 100.5168 259.6158 13.16592540239997
ONEWEB-0262             
1 48980U 21060P   26170.69933243  .00002631  00000+0  68472-2 0  9993
2 48980  87.9102 228.2699 0002520 106.9973 253.1434 13.16581175239958
ONEWEB-0263             
1 48981U 21060Q   26170.65499639 -.00000056  00000+0 -17949-3 0  9991
2 48981  87.9095 228.2917 0001815 104.4680 255.6653 13.16595089239912
ONEWEB-0264             
1 48982U 21060R   26170.69220610  .00000127  00000+0  29818-3 0  9992
2 48982  87.9096 228.2874 0001807  94.5318 265.6019 13.16595482239929
ONEWEB-0266             
1 48984U 21060T   26170.63758490 -.00000038  00000+0 -13254-3 0  9990
2 48984  87.9098 228.2885 0002152  97.7139 262.4236 13.16594402239900
ONEWEB-0267             
1 48985U 21060U   26170.64866586  .00000054  00000+0  10673-3 0  9996
2 48985  87.9095 228.2828 0001816  98.8632 261.2704 13.16595195239919
ONEWEB-0268             
1 48986U 21060V   26170.69297889  .00000050  00000+0  98011-4 0  9995
2 48986  87.9099 228.2839 0002034  94.2820 265.8543 13.16596077240180
ONEWEB-0269             
1 48987U 21060W   26170.67399735  .00000070  00000+0  14847-3 0  9993
2 48987  87.9083 228.2899 0002119  92.8048 267.3326 13.16594591239958
ONEWEB-0270             
1 48988U 21060X   26170.69141546  .00000137  00000+0  32399-3 0  9997
2 48988  87.9098 228.2861 0001889 107.7838 252.3499 13.16594885239995
ONEWEB-0271             
1 48989U 21060Y   26170.67874963  .00000071  00000+0  15327-3 0  9991
2 48989  87.9094 228.2783 0001848 102.3503 257.7835 13.16594466239998
ONEWEB-0272             
1 48990U 21060Z   26170.70090897  .00000077  00000+0  16878-3 0  9991
2 48990  87.9094 228.2861 0001832  91.2766 268.8574 13.16593570239940
ONEWEB-0273             
1 48991U 21060AA  26170.64708201 -.00000093  00000+0 -27656-3 0  9996
2 48991  87.9098 228.2961 0002000 100.7831 259.3525 13.16594956239910
ONEWEB-0274             
1 48992U 21060AB  26170.67241078  .00000057  00000+0  11612-3 0  9997
2 48992  87.9087 228.2930 0001886  89.5064 270.6283 13.16593789239952
