OBJECT_NAME,OBJECT_ID,EPOCH,MEAN_MOTION,ECCENTRICITY,INCLINATION,RA_OF_ASC_NODE,ARG_OF_PERICENTER,MEAN_ANOMALY,EPHEMERIS_TYPE,CLASSIFICATION_TYPE,NORAD_CAT_ID,ELEMENT_SET_NO,REV_AT_EPOCH,BSTAR,MEAN_MOTION_DOT,MEAN_MOTION_DDOT
ONEWEB-0236,2021-045AG,2026-06-19T12:48:24.736896,13.15549153,.00020872,87.8998,258.7389,101.2491,258.8874,0,U,48797,999,24456,-.55302519E-4,-.8E-7,0
ONEWEB-0248,2021-045AH,2026-06-19T16:45:41.918976,13.15548389,.0001825,87.9012,258.6899,115.3725,244.7595,0,U,48798,999,24474,.78281E-3,.308E-5,0
ONEWEB-0225,2021-045AJ,2026-06-19T17:17:39.096096,13.15549143,.0001525,87.9009,258.6934,112.4043,247.7249,0,U,48799,999,24475,-.32734E-4,0,0
ONEWEB-0215,2021-045AK,2026-06-19T16:34:16.937184,13.15547210,.0001561,87.9011,258.6820,119.7258,240.4028,0,U,48800,999,24462,.45848E-3,.185E-5,0
ONEWEB-0216,2021-045AL,2026-06-19T16:47:59.509248,13.15549407,.000196,87.9010,258.6949,98.8210,261.3143,0,U,48801,999,24463,.44743E-3,.181E-5,0
ONEWEB-0239,2021-045AM,2026-06-19T16:54:49.879008,13.15548798,.0001778,87.9001,258.7002,125.8255,234.3040,0,U,48802,999,24467,.37644E-3,.155E-5,0
ONEWEB-0249,2021-060A,2026-06-19T15:16:58.274976,13.16595634,.0002054,87.9096,228.2917,100.9325,259.2037,0,U,48967,999,23993,-.20225E-4,.5E-7,0
ONEWEB-0250,2021-060B,2026-06-19T15:31:44.001120,13.25833853,.0002887,87.9095,226.0381,111.7643,248.3801,0,U,48968,999,24054,.12178E-3,.67E-6,0
ONEWEB-0252,2021-060D,2026-06-19T16:01:26.423616,13.16593970,.0001902,87.9095,228.2777,92.8765,267.2583,0,U,48970,999,23998,.32898E-5,.14E-6,0
ONEWEB-0253,2021-060E,2026-06-19T15:45:28.886112,13.16593638,.0002087,87.9095,228.2857,101.0819,259.0546,0,U,48971,999,23991,.67486E-4,.39E-6,0
ONEWEB-0254,2021-060F,2026-06-19T15:59:09.579840,13.16594853,.0001964,87.9096,228.2812,106.9047,253.2299,0,U,48972,999,23991,-.454E-4,-.5E-7,0
ONEWEB-0255,2021-060G,2026-06-19T13:15:00.392832,13.16595062,.00019237,87.9098,228.3105,101.9518,258.1829,0,U,48973,999,23997,.94008674E-4,.49E-6,0
ONEWEB-0256,2021-060H,2026-06-19T10:13:44.745312,13.16597088,.00021683,87.9090,228.3394,92.8715,267.2664,0,U,48974,999,23992,-.1996462E-2,-.75E-5,0
ONEWEB-0257,2021-060J,2026-06-19T16:28:47.515584,13.16594770,.0001876,87.9096,228.2748,98.6271,261.5072,0,U,48975,999,23991,.43126E-3,.178E-5,0
ONEWEB-0258,2021-060K,2026-06-19T16:31:04.641024,13.16594177,.000207,87.9095,228.2865,99.1398,260.9967,0,U,48976,999,23992,.11432E-3,.57E-6,0
ONEWEB-0259,2021-060L,2026-06-19T16:21:57.500928,13.16594926,.0002053,87.9094,228.2870,102.7798,257.3562,0,U,48977,999,23995,.28099E-3,.12E-5,0
ONEWEB-0260,2021-060M,2026-06-19T16:09:24.713280,13.16594161,.0001916,87.9088,228.2902,86.6750,273.4600,0,U,48978,999,23993,.89136E-4,.47E-6,0
ONEWEB-0261,2021-060N,2026-06-19T17:15:30.626208,13.16592540,.0001731,87.9093,228.2812,100.5168,259.6158,0,U,48979,999,23999,-.62348E-4,-.11E-6,0
ONEWEB-0262,2021-060P,2026-06-19T16:47:02.321952,13.16581175,.000252,87.9102,228.2699,106.9973,253.1434,0,U,48980,999,23995,.68472E-2,.2631E-4,0
ONEWEB-0263,2021-060Q,2026-06-19T15:43:11.688096,13.16595089,.0001815,87.9095,228.2917,104.4680,255.6653,0,U,48981,999,23991,-.17949E-3,-.56E-6,0
ONEWEB-0264,2021-060R,2026-06-19T16:36:46.607040,13.16595482,.0001807,87.9096,228.2874,94.5318,265.6019,0,U,48982,999,23992,.29818E-3,.127E-5,0
ONEWEB-0266,2021-060T,2026-06-19T15:18:07.335360,13.16594402,.0002152,87.9098,228.2885,97.7139,262.4236,0,U,48984,999,23990,-.13254E-3,-.38E-6,0
ONEWEB-0267,2021-060U,2026-06-19T15:34:04.730304,13.16595195,.0001816,87.9095,228.2828,98.8632,261.2704,0,U,48985,999,23991,.10673E-3,.54E-6,0
ONEWEB-0268,2021-060V,2026-06-19T16:37:53.376096,13.16596077,.0002034,87.9099,228.2839,94.2820,265.8543,0,U,48986,999,24018,.98011E-4,.5E-6,0
ONEWEB-0269,2021-060W,2026-06-19T16:10:33.371040,13.16594591,.0002119,87.9083,228.2899,92.8048,267.3326,0,U,48987,999,23995,.14847E-3,.7E-6,0
ONEWEB-0270,2021-060X,2026-06-19T16:35:38.295744,13.16594885,.0001889,87.9098,228.2861,107.7838,252.3499,0,U,48988,999,23999,.32399E-3,.137E-5,0
ONEWEB-0271,2021-060Y,2026-06-19T16:17:23.968032,13.16594466,.0001848,87.9094,228.2783,102.3503,257.7835,0,U,48989,999,23999,.15327E-3,.71E-6,0
ONEWEB-0272,2021-060Z,2026-06-19T16:49:18.535008,13.16593570,.0001832,87.9094,228.2861,91.2766,268.8574,0,U,48990,999,23994,.16878E-3,.77E-6,0
ONEWEB-0273,2021-060AA,2026-06-19T15:31:47.885664,13.16594956,.0002,87.9098,228.2961,100.7831,259.3525,0,U,48991,999,23991,-.27656E-3,-.93E-6,0
ONEWEB-0274,2021-060AB,2026-06-19T16:08:16.291392,13.16593789,.0001886,87.9087,228.2930,89.5064,270.6283,0,U,48992,999,23995,.11612E-3,.57E-6,0
